QIANFAN-210             
1 69809U 26153K   26198.56155593 -.01869847  00000+0 -96175+0 0  9995
2 69809  88.9919 358.7752 0011870 192.1121 167.9785 14.19057192  1888
QIANFAN-211             
1 69810U 26153L   26198.56085725 -.01853369  00000+0 -94680+0 0  9997
2 69810  88.9919 358.7751 0008848 197.6643 162.4241 14.19404257  1884
QIANFAN-212             
1 69811U 26153M   26198.55680841 -.01812966  00000+0 -88345+0 0  9996
2 69811  88.9920 358.7744 0007528 169.0889 191.0467 14.21837100  1886
QIANFAN-213             
1 69812U 26153N   26198.48676247 -.01819392  00000+0 -89107+0 0  9991
2 69812  88.9919 358.7827 0006785 174.7343 185.3920 14.21585762  1872
QIANFAN-214             
1 69813U 26153P   26198.55645765 -.01577245  00000+0 -78044+0 0  9997
2 69813  88.9920 358.7745 0005886 182.8776 177.2382 14.21118816  1880
QIANFAN-215             
1 69814U 26153Q   26198.48795940  .00000122  00000+0  44291-4 0  9995
2 69814  88.9923 358.7824 0008145 178.0107 182.1121 14.26718733  1872
QIANFAN-216             
1 69815U 26153R   26198.55645066 -.01842159  00000+0 -88568+0 0  9994
2 69815  88.9920 358.7746 0008268 161.0807 199.0693 14.22605331  1885
QIANFAN-217             
1 69816U 26153S   26198.55589935 -.01678810  00000+0 -82613+0 0  9993
2 69816  88.9919 358.7741 0006024 176.9690 183.1538 14.21654994  1882
QIANFAN-218             
1 69817U 26153T   26198.55550965 -.01678278  00000+0 -82509+0 0  9997
2 69817  88.9922 358.7746 0005765 176.5582 183.5649 14.21704449  1887
STARLINK-37520          
1 69819U 26154A   26198.58335648 -.00021366  00000+0 -10489-3 0  9993
2 69819  53.1582 280.9862 0001492  71.9417 209.1021 15.80887979  3054
STARLINK-37553          
1 69820U 26154B   26198.58335648 -.00049200  00000+0 -24686-3 0  9996
2 69820  53.1583 280.9770 0000931  77.9850 207.3313 15.80898630  3059
STARLINK-37561          
1 69821U 26154C   26198.58335648 -.00050222  00000+0 -25205-3 0  9991
2 69821  53.1584 280.9677 0001155  79.9696 209.6174 15.80901707  3056
STARLINK-37521          
1 69822U 26154D   26198.58335648 -.00037686  00000+0 -18802-3 0  9996
2 69822  53.1584 280.9591 0001184  75.5174 218.3397 15.80895854  3056
STARLINK-37628          
1 69823U 26154E   26198.58335648 -.00047092  00000+0 -23607-3 0  9998
2 69823  53.1586 280.9505 0001126  73.5938 224.5388 15.80898105  3057
STARLINK-37695          
1 69824U 26154F   26198.58335648 -.00017881  00000+0 -86906-4 0  9994
2 69824  53.1589 280.8690 0000396  96.4412 241.1396 15.80957147  3050
STARLINK-37690          
1 69825U 26154G   26198.58335648 -.00043158  00000+0 -21601-3 0  9991
2 69825  53.1587 280.9330 0001154  77.8068 228.8714 15.80892459  3054
STARLINK-37710          
1 69826U 26154H   26198.58335648 -.00048398  00000+0 -24274-3 0  9992
2 69826  53.1586 280.9242 0001069  74.3675 236.5771 15.80899791  3052
STARLINK-38031          
1 69827U 26154J   26198.58335648 -.00033931  00000+0 -16889-3 0  9993
2 69827  53.1586 280.9146 0001036  68.7812 246.4398 15.80892263  3052
STARLINK-38001          
1 69828U 26154K   26198.58335648 -.00014311  00000+0 -69078-4 0  9994
2 69828  53.1628 280.9064 0001183  73.1316 246.3673 15.80874566  3052
STARLINK-37622          
1 69829U 26154L   26198.58335648 -.00046465  00000+0 -23289-3 0  9993
2 69829  53.1588 280.8975 0001211  69.8077 253.9568 15.80895498  3050
STARLINK-37621          
1 69830U 26154M   26198.58335648 -.00065475  00000+0 -33019-3 0  9999
2 69830  53.1588 280.8886 0000912  67.1064 260.9210 15.80906530  3059
STARLINK-37918          
1 69831U 26154N   26198.58335648 -.00057193  00000+0 -28773-3 0  9999
2 69831  53.1588 280.8797 0001105  85.3791 246.9250 15.80903312  3058
STARLINK-37887          
1 69832U 26154P   26198.58335648 -.00023291  00000+0 -11470-3 0  9998
2 69832  53.1588 280.8706 0000959  62.8004 273.7826 15.80887352  3054
STARLINK-37624          
1 69833U 26154Q   26198.58335648 -.00078187  00000+0 -39541-3 0  9992
2 69833  53.1588 280.8618 0001094  63.0298 277.8111 15.80914747  3057
STARLINK-37769          
1 69834U 26154R   26198.58335648 -.00062672  00000+0 -31582-3 0  9992
2 69834  53.1588 280.8529 0001260  76.0737 269.0456 15.80904147  3054
STARLINK-37247          
1 69835U 26154S   26198.58335648 -.00172296  00000+0 -88118-3 0  9994
2 69835  53.1589 280.8442 0001576  53.8796 295.4250 15.81010166  3154
STARLINK-37569          
1 69836U 26154T   26198.58335648 -.00054919  00000+0 -27612-3 0  9998
2 69836  53.1590 280.8356 0001124  75.1210 278.5412 15.80900005  3058
STARLINK-37587          
1 69837U 26154U   26198.58335648 -.00024682  00000+0 -12183-3 0  9990
2 69837  53.1589 280.8263 0001336  70.1494 287.7983 15.80878930  3021
STARLINK-37590          
1 69838U 26154V   26198.58335648 -.00037056  00000+0 -18490-3 0  9997
2 69838  53.1589 280.8176 0000853  91.6943 270.5200 15.80886056  2899
