OBJECT_NAME,OBJECT_ID,EPOCH,MEAN_MOTION,ECCENTRICITY,INCLINATION,RA_OF_ASC_NODE,ARG_OF_PERICENTER,MEAN_ANOMALY,EPHEMERIS_TYPE,CLASSIFICATION_TYPE,NORAD_CAT_ID,ELEMENT_SET_NO,REV_AT_EPOCH,BSTAR,MEAN_MOTION_DOT,MEAN_MOTION_DDOT
QIANFAN-210,2026-153K,2026-07-17T13:28:38.432352,14.19057192,.001187,88.9919,358.7752,192.1121,167.9785,0,U,69809,999,188,-.96175336E+0,-.1869847E-1,0
QIANFAN-211,2026-153L,2026-07-17T13:27:38.066400,14.19404257,.00088481,88.9919,358.7751,197.6643,162.4241,0,U,69810,999,188,-.94680011E+0,-.1853369E-1,0
QIANFAN-212,2026-153M,2026-07-17T13:21:48.246624,14.21837100,.00075284,88.9920,358.7744,169.0889,191.0467,0,U,69811,999,188,-.88345162E+0,-.1812966E-1,0
QIANFAN-213,2026-153N,2026-07-17T11:40:56.277408,14.21585762,.00067856,88.9919,358.7827,174.7343,185.3920,0,U,69812,999,187,-.89106818E+0,-.1819392E-1,0
QIANFAN-214,2026-153P,2026-07-17T13:21:17.940960,14.21118816,.00058861,88.9920,358.7745,182.8776,177.2382,0,U,69813,999,188,-.78043628E+0,-.1577245E-1,0
QIANFAN-215,2026-153Q,2026-07-17T11:42:39.692160,14.26718733,.00081458,88.9923,358.7824,178.0107,182.1121,0,U,69814,999,187,.44291168E-4,.122E-5,0
QIANFAN-216,2026-153R,2026-07-17T13:21:17.337024,14.22605331,.00082687,88.9920,358.7746,161.0807,199.0693,0,U,69815,999,188,-.88567787E+0,-.1842159E-1,0
QIANFAN-217,2026-153S,2026-07-17T13:20:29.703840,14.21654994,.0006024,88.9919,358.7741,176.9690,183.1538,0,U,69816,999,188,-.82613129E+0,-.167881E-1,0
QIANFAN-218,2026-153T,2026-07-17T13:19:56.033760,14.21704449,.00057652,88.9922,358.7746,176.5582,183.5649,0,U,69817,999,188,-.8250929E+0,-.1678278E-1,0
STARLINK-37520,2026-154A,2026-07-17T14:00:01.999872,15.80887979,.00014924,53.1582,280.9862,71.9417,209.1021,0,U,69819,999,305,-.10489282E-3,-.21366E-3,0
STARLINK-37553,2026-154B,2026-07-17T14:00:01.999872,15.80898630,.00009317,53.1583,280.9770,77.9850,207.3313,0,U,69820,999,305,-.24685879E-3,-.492E-3,0
STARLINK-37561,2026-154C,2026-07-17T14:00:01.999872,15.80901707,.00011557,53.1584,280.9677,79.9696,209.6174,0,U,69821,999,305,-.2520463E-3,-.50222E-3,0
STARLINK-37521,2026-154D,2026-07-17T14:00:01.999872,15.80895854,.0001184,53.1584,280.9591,75.5174,218.3397,0,U,69822,999,305,-.18802155E-3,-.37686E-3,0
STARLINK-37628,2026-154E,2026-07-17T14:00:01.999872,15.80898105,.00011261,53.1586,280.9505,73.5938,224.5388,0,U,69823,999,305,-.23607215E-3,-.47092E-3,0
STARLINK-37695,2026-154F,2026-07-17T14:00:01.999872,15.80957147,.00003965,53.1589,280.8690,96.4412,241.1396,0,U,69824,999,305,-.86905869E-4,-.17881E-3,0
STARLINK-37690,2026-154G,2026-07-17T14:00:01.999872,15.80892459,.00011541,53.1587,280.9330,77.8068,228.8714,0,U,69825,999,305,-.21600973E-3,-.43158E-3,0
STARLINK-37710,2026-154H,2026-07-17T14:00:01.999872,15.80899791,.00010694,53.1586,280.9242,74.3675,236.5771,0,U,69826,999,305,-.24273662E-3,-.48398E-3,0
STARLINK-38031,2026-154J,2026-07-17T14:00:01.999872,15.80892263,.00010361,53.1586,280.9146,68.7812,246.4398,0,U,69827,999,305,-.1688905E-3,-.33931E-3,0
STARLINK-38001,2026-154K,2026-07-17T14:00:01.999872,15.80874566,.00011839,53.1628,280.9064,73.1316,246.3673,0,U,69828,999,305,-.69077808E-4,-.14311E-3,0
STARLINK-37622,2026-154L,2026-07-17T14:00:01.999872,15.80895498,.00012116,53.1588,280.8975,69.8077,253.9568,0,U,69829,999,305,-.23288789E-3,-.46465E-3,0
STARLINK-37621,2026-154M,2026-07-17T14:00:01.999872,15.80906530,.00009122,53.1588,280.8886,67.1064,260.9210,0,U,69830,999,305,-.33019253E-3,-.65475E-3,0
STARLINK-37918,2026-154N,2026-07-17T14:00:01.999872,15.80903312,.0001105,53.1588,280.8797,85.3791,246.9250,0,U,69831,999,305,-.28773283E-3,-.57193E-3,0
STARLINK-37887,2026-154P,2026-07-17T14:00:01.999872,15.80887352,.00009599,53.1588,280.8706,62.8004,273.7826,0,U,69832,999,305,-.11470377E-3,-.23291E-3,0
STARLINK-37624,2026-154Q,2026-07-17T14:00:01.999872,15.80914747,.00010941,53.1588,280.8618,63.0298,277.8111,0,U,69833,999,305,-.39540865E-3,-.78187E-3,0
STARLINK-37769,2026-154R,2026-07-17T14:00:01.999872,15.80904147,.000126,53.1588,280.8529,76.0737,269.0456,0,U,69834,999,305,-.31582337E-3,-.62672E-3,0
STARLINK-37247,2026-154S,2026-07-17T14:00:01.999872,15.81010166,.00015761,53.1589,280.8442,53.8796,295.4250,0,U,69835,999,315,-.88118392E-3,-.172296E-2,0
STARLINK-37569,2026-154T,2026-07-17T14:00:01.999872,15.80900005,.00011244,53.1590,280.8356,75.1210,278.5412,0,U,69836,999,305,-.27612469E-3,-.54919E-3,0
STARLINK-37587,2026-154U,2026-07-17T14:00:01.999872,15.80878930,.00013366,53.1589,280.8263,70.1494,287.7983,0,U,69837,999,302,-.12182706E-3,-.24682E-3,0
STARLINK-37590,2026-154V,2026-07-17T14:00:01.999872,15.80886056,.00008533,53.1589,280.8176,91.6943,270.5200,0,U,69838,999,289,-.18489752E-3,-.37056E-3,0
